     2.100          NAVIGATION                              RINEX VERSION / TYPE
fic2rin                                 12/03/2012 00:09:04 PGM / RUN BY / DATE
                                                            END OF HEADER
26 12 12  2  6  0  0.0 -.189642421901D-03  .135287336889D-10  .000000000000D+00
     .640000000000D+02  .889062500000D+02  .380730144653D-08 -.158677554106D+01
     .488013029099D-05  .208877901314D-01  .854581594467D-05  .515366293716D+04
     .216000000000D+05  .433996319771D-06 -.242922081523D+01  .279396772385D-06
     .981312083816D+00  .222781250000D+03  .121202156927D+01 -.755174313184D-08
     .657170230921D-10  .100000000000D+01  .171700000000D+04  .000000000000D+00
     .240000000000D+01  .000000000000D+00 -.605359673500D-08  .640000000000D+02
     .144060000000D+05  .400000000000D+01
27 12 12  2  6  0  0.0 -.208527781069D-03  .329691829393D-11  .000000000000D+00
     .980000000000D+02 -.106656250000D+03  .562451999812D-08  .513605096022D+00
    -.535883009434D-05  .563406967558D-02  .478141009808D-05  .515361154747D+04
     .216000000000D+05 -.130385160446D-07 -.416264118683D+00  .689178705215D-07
     .976061957561D+00  .293750000000D+03  .866277747214D+00 -.820927052050D-08
    -.323227749447D-09  .100000000000D+01  .171700000000D+04  .000000000000D+00
     .340000000000D+01  .630000000000D+02 -.190921127796D-07  .980000000000D+02
     .144060000000D+05  .400000000000D+01
28 12 12  2  6  0  0.0  .210057012737D-03  .352429196937D-11  .000000000000D+00
     .510000000000D+02 -.905625000000D+02  .424767693279D-08  .419332788311D+00
    -.464916229248D-05  .184405648615D-01  .555627048016D-05  .515363535500D+04
     .216000000000D+05 -.217929482460D-06 -.371068603194D+00 -.372529029846D-08
     .981530421413D+00  .289156250000D+03 -.180896338825D+01 -.832034657583D-08
    -.327156484524D-09  .100000000000D+01  .171700000000D+04  .000000000000D+00
     .240000000000D+01  .000000000000D+00 -.107102096081D-07  .510000000000D+02
     .144060000000D+05  .400000000000D+01
29 12 12  2  6  0  0.0  .383093953133D-03  .397903932026D-11  .000000000000D+00
     .800000000000D+02 -.425312500000D+02  .414945855589D-08  .255179912193D+01
    -.228732824326D-05  .175894633867D-02  .110864639282D-04  .515374691963D+04
     .216000000000D+05 -.335276126862D-07  .669267624243D+00  .316649675369D-07
     .964793286850D+00  .166187500000D+03 -.109827418218D+01 -.767710549654D-08
     .245010205659D-09  .100000000000D+01  .171700000000D+04  .000000000000D+00
     .340000000000D+01  .000000000000D+00 -.931322574615D-08  .800000000000D+02
     .144060000000D+05  .400000000000D+01
30 12 12  2  6  0  0.0 -.298853032291D-03  .150066625793D-10  .000000000000D+00
     .103000000000D+03 -.956250000000D+02  .474269755239D-08 -.407884798953D+00
    -.482983887196D-05  .109487823211D-01  .397115945816D-05  .515374898529D+04
     .216000000000D+05 -.121071934700D-06 -.524640065570D+00  .260770320892D-07
     .962257768938D+00  .303250000000D+03  .161498059431D+01 -.854392731744D-08
    -.222152110670D-09  .100000000000D+01  .171700000000D+04  .000000000000D+00
     .965000000000D+01  .000000000000D+00 -.465661287308D-08  .103000000000D+03
     .144060000000D+05  .400000000000D+01
31 12 12  2  6  0  0.0  .289991963655D-03  .204636307899D-11  .000000000000D+00
     .410000000000D+02  .639687500000D+02  .436768193148D-08 -.311181784242D+01
     .342167913914D-05  .805917230900D-02  .229105353355D-05  .515377832031D+04
     .216000000000D+05 -.931322574615D-08 -.144977883958D+01  .134110450745D-06
     .980583639850D+00  .345812500000D+03 -.842714227276D+00 -.809390857235D-08
     .228580949885D-09  .100000000000D+01  .171700000000D+04  .000000000000D+00
     .240000000000D+01  .000000000000D+00 -.135041773319D-07  .410000000000D+02
     .144060000000D+05  .400000000000D+01
32 12 12  2  6  0  0.0 -.513135921210D-03 -.341060513165D-11  .000000000000D+00
     .540000000000D+02 -.393750000000D+01  .468412368398D-08 -.248341126540D+01
    -.689178705215D-07  .117324455641D-01  .843033194542D-05  .515379746056D+04
     .216000000000D+05 -.188127160072D-06  .280441829551D+01  .109896063805D-06
     .950582816618D+00  .212250000000D+03 -.445117465546D+00 -.794461663946D-08
    -.416445918073D-09  .100000000000D+01  .171700000000D+04  .000000000000D+00
     .240000000000D+01  .000000000000D+00 -.325962901115D-08  .540000000000D+02
     .144060000000D+05  .400000000000D+01
 1 12 12  2  5 59 44.0  .285339076072D-03  .193267624127D-11  .000000000000D+00
     .000000000000D+00  .137187500000D+02  .471412493365D-08 -.272527994262D+01
     .776723027229D-06  .146370218135D-02  .653602182865D-05  .515370430183D+04
     .215840000000D+05  .745058059692D-08  .166893674351D+01  .167638063431D-07
     .959626735643D+00  .253468750000D+03  .519267876357D+00 -.802890586473D-08
     .301083969927D-09  .100000000000D+01  .171700000000D+04  .000000000000D+00
     .240000000000D+01  .000000000000D+00  .838190317154D-08  .000000000000D+00
     .153060000000D+05  .400000000000D+01
 9 12 12  2  5 59 44.0  .203714706004D-03  .261479726760D-11  .000000000000D+00
     .160000000000D+02  .601875000000D+02  .417588822822D-08  .275626864810D+01
     .305101275444D-05  .170447708806D-01  .218860805035D-05  .515284518051D+04
     .215840000000D+05  .260770320892D-06 -.147794475685D+01 -.800937414169D-07
     .984236025495D+00  .346781250000D+03  .163395252349D+01 -.783818363467D-08
     .114290474943D-09  .100000000000D+01  .171700000000D+04  .000000000000D+00
     .240000000000D+01  .000000000000D+00 -.558793544769D-08  .160000000000D+02
     .155160000000D+05  .400000000000D+01
 8 12 12  2  5 59 44.0  .318326056004D-05  .227373675443D-12  .000000000000D+00
     .640000000000D+02  .424375000000D+02  .393587823084D-08  .257549113435D+01
     .218860805035D-05  .127430116991D-01  .282935798168D-05  .515362605476D+04
     .215840000000D+05 -.277534127235D-06 -.136607975765D+01 -.316649675369D-07
     .998018590726D+00  .348093750000D+03 -.289389359243D+01 -.783639784600D-08
     .181078971237D-09  .100000000000D+01  .171700000000D+04  .000000000000D+00
     .240000000000D+01  .000000000000D+00 -.419095158577D-08  .640000000000D+02
     .177060000000D+05  .400000000000D+01
13 12 12  2  5 59 44.0  .163165852427D-03 -.272848410532D-11  .000000000000D+00
     .270000000000D+02  .902187500000D+02  .382515933324D-08 -.709938364834D+00
     .448338687420D-05  .481219019275D-02  .962987542152D-05  .515359127998D+04
     .215840000000D+05 -.726431608200D-07 -.242249866131D+01  .558793544769D-08
     .983811725124D+00  .209531250000D+03  .207423583915D+01 -.771532137410D-08
     .925038531568D-10  .100000000000D+01  .171700000000D+04  .000000000000D+00
     .240000000000D+01  .000000000000D+00 -.111758708954D-07  .270000000000D+02
     .195360000000D+05  .400000000000D+01
 1 12 12  2  7 59 44.0  .285353045911D-03  .193267624127D-11  .000000000000D+00
     .250000000000D+02  .134687500000D+02  .472805408529D-08 -.167512536829D+01
     .771135091782D-06  .146373128518D-02  .658817589283D-05  .515370424271D+04
     .287840000000D+05  .558793544769D-08  .166887925230D+01 -.558793544769D-07
     .959628736914D+00  .253562500000D+03  .519276808935D+00 -.802747723379D-08
     .243224416988D-09  .100000000000D+01  .171700000000D+04  .000000000000D+00
     .240000000000D+01  .000000000000D+00  .838190317154D-08  .250000000000D+02
     .216060000000D+05  .400000000000D+01
 8 12 12  2  7 59 44.0  .318512320518D-05  .227373675443D-12  .000000000000D+00
     .660000000000D+02  .441250000000D+02  .392659212975D-08 -.265747880840D+01
     .221282243729D-05  .127430075081D-01  .293180346489D-05  .515362604904D+04
     .287840000000D+05 -.197440385818D-06 -.136613628627D+01 -.208616256714D-06
     .998019957091D+00  .347375000000D+03 -.289390296389D+01 -.785747015231D-08
     .229652423088D-09  .100000000000D+01  .171700000000D+04  .000000000000D+00
     .240000000000D+01  .000000000000D+00 -.419095158577D-08  .660000000000D+02
     .216060000000D+05  .400000000000D+01
 9 12 12  2  7 59 44.0  .203733798116D-03  .261479726760D-11  .000000000000D+00
     .170000000000D+02  .552500000000D+02  .410909973193D-08 -.247621653041D+01
     .294484198093D-05  .170435605105D-01  .258348882198D-05  .515284744835D+04
     .287840000000D+05  .173225998878D-06 -.147800202131D+01  .139698386192D-06
     .984237643483D+00  .339000000000D+03  .163393729013D+01 -.780961101593D-08
     .290726395636D-09  .100000000000D+01  .171700000000D+04  .000000000000D+00
     .240000000000D+01  .000000000000D+00 -.558793544769D-08  .170000000000D+02
     .216060000000D+05  .400000000000D+01
13 12 12  2  7 59 44.0  .163146294653D-03 -.272848410532D-11  .000000000000D+00
     .280000000000D+02  .917500000000D+02  .372729811407D-08  .340414806477D+00
     .469759106636D-05  .481302349363D-02  .980496406555D-05  .515359305382D+04
     .287840000000D+05 -.204890966415D-07 -.242255396839D+01 -.540167093277D-07
     .983812096706D+00  .200187500000D+03  .207410725743D+01 -.773389357628D-08
     .321441960776D-10  .100000000000D+01  .171700000000D+04  .000000000000D+00
     .240000000000D+01  .000000000000D+00 -.111758708954D-07  .280000000000D+02
     .216060000000D+05  .400000000000D+01
 2 12 12  2  8  0  0.0  .410525128245D-03  .102318153949D-11  .000000000000D+00
     .650000000000D+02  .173437500000D+02  .534593696545D-08 -.679856356963D+00
     .905245542526D-06  .117046132218D-01  .609271228313D-05  .515356214714D+04
     .288000000000D+05  .266358256340D-06  .165107130266D+01  .931322574615D-07
     .938151115794D+00  .251687500000D+03 -.271239245650D+01 -.846892419326D-08
     .177150236161D-09  .100000000000D+01  .171700000000D+04  .000000000000D+00
     .240000000000D+01  .000000000000D+00 -.176951289177D-07  .650000000000D+02
     .216060000000D+05  .400000000000D+01
